{
  "norad_id": 66885,
  "name": "STARLINK-35954",
  "history": [
    {
      "epoch": "2026-04-13T01:32:16.590624Z",
      "apogee_km": 476.07016236630716,
      "perigee_km": 474.34092697543656,
      "latitude_deg": 6.398262214633435e-05,
      "longitude_deg": 0.4123898135040389,
      "height_km": 476.0811855062093,
      "semi_major_axis_km": 6853.342544670872,
      "eccentricity": 0.00012616,
      "inclination_deg": 53.1576,
      "raan_deg": 224.7417,
      "arg_perigee_deg": 88.53,
      "mean_anomaly_deg": 271.5846,
      "mean_motion_rev_day": 15.3020319
    },
    {
      "epoch": "2026-04-14T15:09:33.213024Z",
      "apogee_km": 475.99934386983387,
      "perigee_km": 474.41485071453917,
      "latitude_deg": 5.658928511264055e-05,
      "longitude_deg": 147.26897457372007,
      "height_km": 475.97337940004184,
      "semi_major_axis_km": 6853.344097292186,
      "eccentricity": 0.0001156,
      "inclination_deg": 53.1593,
      "raan_deg": 217.4626,
      "arg_perigee_deg": 80.417,
      "mean_anomaly_deg": 279.6962,
      "mean_motion_rev_day": 15.3020267
    },
    {
      "epoch": "2026-04-15T14:40:20.971776Z",
      "apogee_km": 475.8187853902191,
      "perigee_km": 474.6180775186276,
      "latitude_deg": 1.7558611916012937e-05,
      "longitude_deg": 149.05129693833388,
      "height_km": 476.1654372583217,
      "semi_major_axis_km": 6853.355431454423,
      "eccentricity": 8.76e-05,
      "inclination_deg": 53.1596,
      "raan_deg": 212.9096,
      "arg_perigee_deg": 94.6284,
      "mean_anomaly_deg": 265.4817,
      "mean_motion_rev_day": 15.30198874
    },
    {
      "epoch": "2026-04-16T14:11:09.114144Z",
      "apogee_km": 475.96970575860905,
      "perigee_km": 474.4455219164911,
      "latitude_deg": -1.2092813783160642e-06,
      "longitude_deg": 150.83463173994704,
      "height_km": 476.0738491766064,
      "semi_major_axis_km": 6853.344613837549,
      "eccentricity": 0.0001112,
      "inclination_deg": 53.1591,
      "raan_deg": 208.3592,
      "arg_perigee_deg": 87.5964,
      "mean_anomaly_deg": 272.5164,
      "mean_motion_rev_day": 15.30202497
    },
    {
      "epoch": "2026-04-17T16:50:03.180480Z",
      "apogee_km": 475.8785135804119,
      "perigee_km": 474.5190858911765,
      "latitude_deg": 1.9704447668350597e-05,
      "longitude_deg": 104.85816358860605,
      "height_km": 476.1679685435405,
      "semi_major_axis_km": 6853.335799735793,
      "eccentricity": 9.918e-05,
      "inclination_deg": 53.1586,
      "raan_deg": 203.2024,
      "arg_perigee_deg": 95.9842,
      "mean_anomaly_deg": 264.1272,
      "mean_motion_rev_day": 15.30205449
    }
  ]
}